; Ellipse Path
; Estimated total time: (0.01128 s)
; Turn laser on (M3 pseudo-code, S values map to Power)
; M3 S200 ; Power: 200 Watts
G21 ; Set units to millimeters
G0 X2.150 Y1.250
M3 S200
G1 X2.113 Y1.373 F48000
G1 X2.023 Y1.486 F48000
G1 X1.886 Y1.582 F48000
G1 X1.713 Y1.655 F48000
G1 X1.514 Y1.702 F48000
G1 X1.303 Y1.719 F48000
G1 X1.093 Y1.707 F48000
G1 X0.897 Y1.666 F48000
G1 X0.728 Y1.601 F48000
G1 X0.595 Y1.515 F48000
G1 X0.505 Y1.414 F48000
G1 X0.464 Y1.305 F48000
G1 X0.473 Y1.195 F48000
G1 X0.530 Y1.092 F48000
G1 X0.631 Y1.000 F48000
G1 X0.768 Y0.926 F48000
G1 X0.932 Y0.874 F48000
G1 X1.112 Y0.847 F48000
G1 X1.296 Y0.846 F48000
G1 X1.472 Y0.870 F48000
G1 X1.631 Y0.916 F48000
G1 X1.762 Y0.983 F48000
G1 X1.857 Y1.065 F48000
G1 X1.913 Y1.155 F48000
G1 X1.925 Y1.250 F48000
G1 X1.895 Y1.342 F48000
G1 X1.826 Y1.426 F48000
G1 X1.722 Y1.496 F48000
G1 X1.592 Y1.550 F48000
G1 X1.445 Y1.583 F48000
G1 X1.289 Y1.594 F48000
G1 X1.135 Y1.584 F48000
G1 X0.993 Y1.553 F48000
G1 X0.871 Y1.504 F48000
G1 X0.777 Y1.441 F48000
G1 X0.714 Y1.368 F48000
G1 X0.687 Y1.289 F48000
G1 X0.696 Y1.211 F48000
G1 X0.740 Y1.138 F48000
G1 X0.813 Y1.074 F48000
G1 X0.912 Y1.023 F48000
G1 X1.028 Y0.988 F48000
G1 X1.154 Y0.970 F48000
G1 X1.282 Y0.971 F48000
G1 X1.403 Y0.988 F48000
G1 X1.510 Y1.022 F48000
G1 X1.598 Y1.069 F48000
G1 X1.660 Y1.125 F48000
G1 X1.695 Y1.187 F48000
G1 X1.700 Y1.250 F48000
G1 X1.677 Y1.311 F48000
G1 X1.629 Y1.366 F48000
G1 X1.558 Y1.411 F48000
G1 X1.472 Y1.444 F48000
G1 X1.375 Y1.464 F48000
G1 X1.275 Y1.470 F48000
G1 X1.177 Y1.461 F48000
G1 X1.089 Y1.440 F48000
G1 X1.015 Y1.408 F48000
G1 X0.959 Y1.368 F48000
G1 X0.924 Y1.322 F48000
G1 X0.911 Y1.274 F48000
G1 X0.920 Y1.227 F48000
G1 X0.949 Y1.184 F48000
G1 X0.995 Y1.147 F48000
G1 X1.055 Y1.119 F48000
G1 X1.124 Y1.101 F48000
G1 X1.196 Y1.093 F48000
G1 X1.268 Y1.095 F48000
G1 X1.333 Y1.107 F48000
G1 X1.390 Y1.128 F48000
G1 X1.434 Y1.154 F48000
G1 X1.463 Y1.185 F48000
G1 X1.477 Y1.218 F48000
G1 X1.475 Y1.250 F48000
G1 X1.459 Y1.280 F48000
G1 X1.431 Y1.305 F48000
G1 X1.394 Y1.325 F48000
G1 X1.351 Y1.339 F48000
G1 X1.306 Y1.345 F48000
G1 X1.261 Y1.345 F48000
G1 X1.220 Y1.338 F48000
G1 X1.185 Y1.327 F48000
G1 X1.158 Y1.312 F48000
G1 X1.141 Y1.294 F48000
G1 X1.133 Y1.276 F48000
G1 X1.134 Y1.258 F48000
G1 X1.143 Y1.242 F48000
G1 X1.158 Y1.230 F48000
G1 X1.177 Y1.221 F48000
G1 X1.198 Y1.215 F48000
G1 X1.219 Y1.214 F48000
G1 X1.238 Y1.216 F48000
G1 X1.253 Y1.220 F48000
G1 X1.264 Y1.226 F48000
G1 X1.269 Y1.233 F48000
G1 X1.270 Y1.240 F48000
G1 X1.266 Y1.245 F48000
G1 X1.259 Y1.249 F48000
G1 X1.250 Y1.250 F48000
M5 ; Laser off
